     2.11           N: GPS NAV DATA                         RINEX VERSION / TYPE
teqc  2019Feb25     CORS-ADM Account    20260115 15:45:06UTCPGM / RUN BY / DATE
Linux 2.4.21-27.ELsmp|Opteron|gcc|Linux 64|=+               COMMENT
     2.10           N: GPS NAV DATA                         COMMENT
rvacn.e(1404.07)                        2026-01-15T13:04 UTCCOMMENT
This file contains the validated broadcast navigation       COMMENT
messages from the following files:                          COMMENT
abmf0110.26n, ajac0110.26n, albh0110.26n, alic0110.26n,     COMMENT
alrt0110.26n, antc0110.26n, areq0110.26n, aruc0110.26n,     COMMENT
ascg0110.26n, badg0110.26n, baie0110.26n, bake0110.26n,     COMMENT
bjfs0110.26n, bogt0110.26n, brew0110.26n, brst0110.26n,     COMMENT
brux0110.26n, bshm0110.26n, bucu0110.26n, cas10110.26n,     COMMENT
cebr0110.26n, cedu0110.26n, chpi0110.26n, chum0110.26n,     COMMENT
chur0110.26n, ckis0110.26n, coco0110.26n, cpvg0110.26n,     COMMENT
cro10110.26n, cusv0110.26n, daej0110.26n, darw0110.26n,     COMMENT
dav10110.26n, dgar0110.26n, djig0110.26n, dlf10110.26n,     COMMENT
drao0110.26n, dubo0110.26n, dyng0110.26n, faa10110.26n,     COMMENT
fair0110.26n, falk0110.26n, flin0110.26n, glps0110.26n,     COMMENT
gode0110.26n, godn0110.26n, gras0110.26n, guam0110.26n,     COMMENT
harb0110.26n, hers0110.26n, hksl0110.26n, hlfx0110.26n,     COMMENT
hnlc0110.26n, hob20110.26n, hofn0110.26n, holb0110.26n,     COMMENT
holm0110.26n, hrao0110.26n, iisc0110.26n, invk0110.26n,     COMMENT
iqal0110.26n, ista0110.26n, joze0110.26n, jplm0110.26n,     COMMENT
kat10110.26n, kerg0110.26n, kiri0110.26n, kiru0110.26n,     COMMENT
kokb0110.26n, kokv0110.26n, koug0110.26n, kour0110.26n,     COMMENT
krgg0110.26n, ksu10110.26n, laut0110.26n, lck40110.26n,     COMMENT
lmmf0110.26n, lpal0110.26n, lroc0110.26n, m0se0110.26n,     COMMENT
mac10110.26n, maju0110.26n, mal20110.26n, mar60110.26n,     COMMENT
mas10110.26n, mat10110.26n, mate0110.26n, maui0110.26n,     COMMENT
maw10110.26n, mbar0110.26n, mchl0110.26n, mcm40110.26n,     COMMENT
mdo10110.26n, medi0110.26n, met30110.26n, mkea0110.26n,     COMMENT
mobs0110.26n, mro10110.26n, nain0110.26n, nano0110.26n,     COMMENT
naur0110.26n, nico0110.26n, nist0110.26n, nium0110.26n,     COMMENT
nklg0110.26n, nlib0110.26n, nnor0110.26n, not10110.26n,     COMMENT
nrc10110.26n, ntus0110.26n, nvsk0110.26n, onsa0110.26n,     COMMENT
orid0110.26n, p0430110.26n, palm0110.26n, pert0110.26n,     COMMENT
picl0110.26n, pie10110.26n, pimo0110.26n, pngm0110.26n,     COMMENT
pohn0110.26n, pol20110.26n, prds0110.26n, ptag0110.26n,     COMMENT
qiki0110.26n, quin0110.26n, rdsd0110.26n, reso0110.26n,     COMMENT
reun0110.26n, reyk0110.26n, riga0110.26n, sant0110.26n,     COMMENT
sask0110.26n, sbok0110.26n, sch20110.26n, scrz0110.26n,     COMMENT
solo0110.26n, sthl0110.26n, stj30110.26n, stjo0110.26n,     COMMENT
stpm0110.26n, suth0110.26n, suwn0110.26n, svtl0110.26n,     COMMENT
sydn0110.26n, thtg0110.26n, thti0110.26n, tid10110.26n,     COMMENT
tow20110.26n, tuva0110.26n, twtf0110.26n, unbj0110.26n,     COMMENT
usud0110.26n, vacs0110.26n, vald0110.26n, vill0110.26n,     COMMENT
vis00110.26n, vndp0110.26n, warn0110.26n, whit0110.26n,     COMMENT
will0110.26n, wsrt0110.26n, wtzr0110.26n, xmis0110.26n,     COMMENT
yar20110.26n, yarr0110.26n, yebe0110.26n, yell0110.26n,     COMMENT
zamb0110.26n, zeck0110.26n, zim20110.26n, zimm0110.26n      COMMENT
    1.3970D-08 -7.4506D-09 -5.9605D-08  1.1921D-07          ION ALPHA
    1.2698D+05 -1.9661D+05  6.5536D+04  2.6214D+05          ION BETA
    0.000000000000D+00 8.881784197001D-16   147456     2401 DELTA-UTC: A0,A1,T,W
                                                            END OF HEADER
16 26  1 11 14  0  0.0 1.857331953943D-04 7.617018127348D-12 0.000000000000D+00
    4.000000000000D+01 6.537500000000D+01 4.626621288776D-09-5.254705144247D-01
    3.501772880554D-06 1.503477082588D-02 8.724629878998D-06 5.153626558304D+03
    5.040000000000D+04-1.490116119385D-08 1.933106604758D+00 2.197921276093D-07
    9.581423828876D-01 2.098750000000D+02 9.201806886249D-01-8.256772499145D-09
   -1.850077063136D-10 1.000000000000D+00 2.401000000000D+03 0.000000000000D+00
    2.000000000000D+00 0.000000000000D+00-1.024454832077D-08 4.000000000000D+01
    4.321800000000D+04 4.000000000000D+00
17 26  1 11 14  0  0.0-2.931803464890D-05-1.170974428533D-11 0.000000000000D+00
    3.100000000000D+01 6.521875000000D+01 4.612334979408D-09-1.636544660723D+00
    3.486871719360D-06 1.284572447184D-02 5.569308996201D-06 5.153565387726D+03
    5.040000000000D+04-2.700835466385D-07 2.950601805071D+00 2.328306436539D-07
    9.602805386018D-01 2.763750000000D+02-1.136999812263D+00-8.289631010691D-09
   -9.678974596714D-11 1.000000000000D+00 2.401000000000D+03 0.000000000000D+00
    2.000000000000D+00 0.000000000000D+00-1.117587089539D-08 3.100000000000D+01
    4.322100000000D+04 4.000000000000D+00
18 26  1 11 14  0  0.0-4.537063650787D-04 9.777068044059D-12 0.000000000000D+00
    2.010000000000D+02-2.425000000000D+01 4.186245802512D-09 2.665844284532D+00
   -1.288950443268D-06 5.690105143003D-03 5.494803190231D-06 5.153646640778D+03
    5.040000000000D+04-1.080334186554D-07-2.322854015165D+00-4.097819328308D-08
    9.722855062226D-01 2.795000000000D+02-2.856548939461D+00-7.978903781941D-09
   -1.035757429169D-10 1.000000000000D+00 2.401000000000D+03 0.000000000000D+00
    2.000000000000D+00 0.000000000000D+00-8.381903171539D-09 7.130000000000D+02
    5.020800000000D+04 4.000000000000D+00
19 26  1 11 14  0  0.0 6.850557401776D-04 1.818989403546D-12 0.000000000000D+00
    5.900000000000D+01 5.400000000000D+01 4.705553148033D-09 2.325183909700D-01
    2.605840563774D-06 1.095124508720D-02 5.178153514862D-06 5.153705997467D+03
    5.040000000000D+04 1.601874828339D-07 2.994506498701D+00-1.490116119385D-08
    9.594783898976D-01 2.796562500000D+02 2.913401562595D+00-8.402492854697D-09
   -1.403629895391D-10 1.000000000000D+00 2.401000000000D+03 0.000000000000D+00
    2.000000000000D+00 0.000000000000D+00-1.536682248116D-08 5.900000000000D+01
    4.472800000000D+04 4.000000000000D+00
21 26  1 11 14  0  0.0 3.780275583267D-04 8.185452315956D-12 0.000000000000D+00
    1.620000000000D+02-4.637500000000D+01 4.290178703163D-09 1.163760062752D+00
   -2.361834049225D-06 5.404314724728D-04 7.422640919685D-06 5.153740720749D+03
    5.040000000000D+04 3.539025783539D-08-1.274030731397D+00-1.117587089539D-08
    9.619892137521D-01 2.367500000000D+02-5.040796194766D-01-7.985332621156D-09
    1.992940156814D-10 1.000000000000D+00 2.401000000000D+03 0.000000000000D+00
    2.800000000000D+00 0.000000000000D+00-9.778887033463D-09 9.300000000000D+02
    4.321800000000D+04 4.000000000000D+00
22 26  1 11 14  0  0.0-5.998183041811D-05 4.206412995700D-12 0.000000000000D+00
    9.000000000000D+01 4.771875000000D+01 4.690552523197D-09-9.825608716499D-01
    2.505257725716D-06 1.225000957493D-02 9.085983037949D-06 5.153633569717D+03
    5.040000000000D+04-1.285225152969D-07 1.936443036671D+00-1.210719347000D-07
    9.575770703800D-01 2.042187500000D+02-9.979447938235D-01-8.250343659930D-09
   -8.678932940965D-11 1.000000000000D+00 2.401000000000D+03 0.000000000000D+00
    2.000000000000D+00 0.000000000000D+00-1.117587089539D-08 9.000000000000D+01
    4.321800000000D+04 4.000000000000D+00
23 26  1 11 14  0  0.0 5.980306304991D-04 5.002220859751D-12 0.000000000000D+00
    1.930000000000D+02-3.678125000000D+01 3.809087235201D-09 1.571523955915D+00
   -1.966953277588D-06 5.998093402013D-03 7.940456271172D-06 5.153698076248D+03
    5.040000000000D+04-7.823109626770D-08-1.316158785628D+00 5.587935447693D-08
    9.871032425265D-01 2.386562500000D+02-2.749347543167D+00-7.754608724865D-09
    1.321483616526D-10 1.000000000000D+00 2.401000000000D+03 0.000000000000D+00
    2.000000000000D+00 0.000000000000D+00-8.381903171539D-09 9.610000000000D+02
    4.321800000000D+04 4.000000000000D+00
24 26  1 11 14  0  0.0-1.670839264989D-04 1.489297574153D-11 0.000000000000D+00
    3.900000000000D+01-2.543750000000D+01 5.242004064796D-09 2.888713188854D+00
   -1.460313796997D-06 1.782703830395D-02 7.361173629761D-06 5.153653228760D+03
    5.040000000000D+04 5.960464477539D-08 6.905378225978D-01-2.924352884293D-07
    9.347900146934D-01 2.198125000000D+02 1.128658914614D+00-8.038906281285D-09
   -1.210764718925D-10 1.000000000000D+00 2.401000000000D+03 0.000000000000D+00
    2.000000000000D+00 0.000000000000D+00 2.328306436539D-09 3.900000000000D+01
    4.320000000000D+04
25 26  1 11 14  0  0.0 4.506381228566D-04-2.387423592154D-12 0.000000000000D+00
    3.500000000000D+01 4.253125000000D+01 4.876988860448D-09 1.144466592953D+00
    2.201646566391D-06 1.292354729958D-02 9.143725037575D-06 5.153748966217D+03
    5.040000000000D+04-2.495944499969D-07 1.822758989548D+00 2.980232238770D-08
    9.472520535131D-01 1.994687500000D+02 1.148633810192D+00-8.278201963197D-09
   -2.514390448740D-10 1.000000000000D+00 2.401000000000D+03 0.000000000000D+00
    2.000000000000D+00 0.000000000000D+00 5.587935447693D-09 3.500000000000D+01
    4.321800000000D+04 4.000000000000D+00
26 26  1 11 14  0  0.0-3.096032887697D-04-6.139089236967D-12 0.000000000000D+00
    4.400000000000D+01 4.718750000000D+01 5.345936965447D-09 3.124547407998D-01
    2.659857273102D-06 1.095711649396D-02 8.810311555862D-06 5.153693826675D+03
    5.040000000000D+04-1.862645149231D-09 1.749156318673D+00 1.601874828339D-07
    9.279925950965D-01 1.895937500000D+02 6.990072302855D-01-8.489996499575D-09
   -2.703684047864D-10 1.000000000000D+00 2.401000000000D+03 0.000000000000D+00
    2.800000000000D+00 0.000000000000D+00 6.519258022308D-09 4.400000000000D+01
    4.321800000000D+04 4.000000000000D+00
